CCSDS_OMM_VERS = 2.0
CREATION_DATE  = 
ORIGINATOR     = 

OBJECT_NAME    = SL-16 R/B
OBJECT_ID      = 1993-016B
CENTER_NAME    = EARTH
REF_FRAME      = TEME
TIME_SYSTEM    = UTC
MEAN_ELEMENT_THEORY = SGP/SGP4

EPOCH          = 2026-01-22T11:40:13.582848
MEAN_MOTION    = 14.15295702
ECCENTRICITY   = .0009137
INCLINATION    = 71.0087
RA_OF_ASC_NODE = 312.2244
ARG_OF_PERICENTER = 22.2974
MEAN_ANOMALY   = 337.8545

EPHEMERIS_TYPE = 0
CLASSIFICATION_TYPE = U
NORAD_CAT_ID   = 22566
ELEMENT_SET_NO = 999
REV_AT_EPOCH   = 69563
BSTAR          = .19286E-3
MEAN_MOTION_DOT = .328E-5
MEAN_MOTION_DDOT = 0

CCSDS_OMM_VERS = 2.0
CREATION_DATE  = 
ORIGINATOR     = 

OBJECT_NAME    = COSMOS 2242
OBJECT_ID      = 1993-024A
CENTER_NAME    = EARTH
REF_FRAME      = TEME
TIME_SYSTEM    = UTC
MEAN_ELEMENT_THEORY = SGP/SGP4

EPOCH          = 2026-01-22T11:57:01.330848
MEAN_MOTION    = 14.96323183
ECCENTRICITY   = .0018089
INCLINATION    = 82.5215
RA_OF_ASC_NODE = 310.8874
ARG_OF_PERICENTER = 99.1016
MEAN_ANOMALY   = 261.2253

EPHEMERIS_TYPE = 0
CLASSIFICATION_TYPE = U
NORAD_CAT_ID   = 22626
ELEMENT_SET_NO = 999
REV_AT_EPOCH   = 77348
BSTAR          = .31186E-3
MEAN_MOTION_DOT = .3563E-4
MEAN_MOTION_DDOT = 0

CCSDS_OMM_VERS = 2.0
CREATION_DATE  = 
ORIGINATOR     = 

OBJECT_NAME    = SL-16 R/B
OBJECT_ID      = 1993-059B
CENTER_NAME    = EARTH
REF_FRAME      = TEME
TIME_SYSTEM    = UTC
MEAN_ELEMENT_THEORY = SGP/SGP4

EPOCH          = 2026-01-22T12:40:54.529824
MEAN_MOTION    = 14.17223818
ECCENTRICITY   = .0019575
INCLINATION    = 70.9908
RA_OF_ASC_NODE = 108.4755
ARG_OF_PERICENTER = 279.3332
MEAN_ANOMALY   = 80.5579

EPHEMERIS_TYPE = 0
CLASSIFICATION_TYPE = U
NORAD_CAT_ID   = 22803
ELEMENT_SET_NO = 999
REV_AT_EPOCH   = 67299
BSTAR          = .10914E-4
MEAN_MOTION_DOT = -.26E-6
MEAN_MOTION_DDOT = 0

CCSDS_OMM_VERS = 2.0
CREATION_DATE  = 
ORIGINATOR     = 

OBJECT_NAME    = ARIANE 40 R/B
OBJECT_ID      = 1993-061H
CENTER_NAME    = EARTH
REF_FRAME      = TEME
TIME_SYSTEM    = UTC
MEAN_ELEMENT_THEORY = SGP/SGP4

EPOCH          = 2026-01-22T11:17:22.513344
MEAN_MOTION    = 14.32832363
ECCENTRICITY   = .0011647
INCLINATION    = 98.5012
RA_OF_ASC_NODE = 92.2477
ARG_OF_PERICENTER = 64.5521
MEAN_ANOMALY   = 295.6867

EPHEMERIS_TYPE = 0
CLASSIFICATION_TYPE = U
NORAD_CAT_ID   = 22830
ELEMENT_SET_NO = 999
REV_AT_EPOCH   = 68748
BSTAR          = .20071E-3
MEAN_MOTION_DOT = .505E-5
MEAN_MOTION_DDOT = 0

CCSDS_OMM_VERS = 2.0
CREATION_DATE  = 
ORIGINATOR     = 

OBJECT_NAME    = COSMOS 2278
OBJECT_ID      = 1994-023A
CENTER_NAME    = EARTH
REF_FRAME      = TEME
TIME_SYSTEM    = UTC
MEAN_ELEMENT_THEORY = SGP/SGP4

EPOCH          = 2026-01-22T09:57:22.415328
MEAN_MOTION    = 14.14366773
ECCENTRICITY   = .000639
INCLINATION    = 71.0539
RA_OF_ASC_NODE = 271.9133
ARG_OF_PERICENTER = 102.0601
MEAN_ANOMALY   = 258.1238

EPHEMERIS_TYPE = 0
CLASSIFICATION_TYPE = U
NORAD_CAT_ID   = 23087
ELEMENT_SET_NO = 999
REV_AT_EPOCH   = 63826
BSTAR          = .48753E-4
MEAN_MOTION_DOT = .46E-6
MEAN_MOTION_DDOT = 0

CCSDS_OMM_VERS = 2.0
CREATION_DATE  = 
ORIGINATOR     = 

OBJECT_NAME    = SL-16 R/B
OBJECT_ID      = 1994-023B
CENTER_NAME    = EARTH
REF_FRAME      = TEME
TIME_SYSTEM    = UTC
MEAN_ELEMENT_THEORY = SGP/SGP4

EPOCH          = 2026-01-22T11:34:31.439712
MEAN_MOTION    = 14.15007042
ECCENTRICITY   = .000394
INCLINATION    = 70.9999
RA_OF_ASC_NODE = 167.9256
ARG_OF_PERICENTER = 328.9527
MEAN_ANOMALY   = 31.1362

EPHEMERIS_TYPE = 0
CLASSIFICATION_TYPE = U
NORAD_CAT_ID   = 23088
ELEMENT_SET_NO = 999
REV_AT_EPOCH   = 63955
BSTAR          = .10494E-4
MEAN_MOTION_DOT = -.27E-6
MEAN_MOTION_DDOT = 0

CCSDS_OMM_VERS = 2.0
CREATION_DATE  = 
ORIGINATOR     = 

OBJECT_NAME    = SL-16 R/B
OBJECT_ID      = 1994-074B
CENTER_NAME    = EARTH
REF_FRAME      = TEME
TIME_SYSTEM    = UTC
MEAN_ELEMENT_THEORY = SGP/SGP4

EPOCH          = 2026-01-22T07:36:35.237664
MEAN_MOTION    = 14.79345160
ECCENTRICITY   = .0007075
INCLINATION    = 97.7166
RA_OF_ASC_NODE = 55.0016
ARG_OF_PERICENTER = 24.3203
MEAN_ANOMALY   = 346.1916

EPHEMERIS_TYPE = 0
CLASSIFICATION_TYPE = U
NORAD_CAT_ID   = 23343
ELEMENT_SET_NO = 999
REV_AT_EPOCH   = 68039
BSTAR          = .13084E-3
MEAN_MOTION_DOT = .925E-5
MEAN_MOTION_DDOT = 0

CCSDS_OMM_VERS = 2.0
CREATION_DATE  = 
ORIGINATOR     = 

OBJECT_NAME    = SL-16 R/B
OBJECT_ID      = 1994-077B
CENTER_NAME    = EARTH
REF_FRAME      = TEME
TIME_SYSTEM    = UTC
MEAN_ELEMENT_THEORY = SGP/SGP4

EPOCH          = 2026-01-22T11:34:01.877088
MEAN_MOTION    = 14.15558697
ECCENTRICITY   = .0004846
INCLINATION    = 70.9831
RA_OF_ASC_NODE = 89.7040
ARG_OF_PERICENTER = 253.0272
MEAN_ANOMALY   = 107.0320

EPHEMERIS_TYPE = 0
CLASSIFICATION_TYPE = U
NORAD_CAT_ID   = 23405
ELEMENT_SET_NO = 999
REV_AT_EPOCH   = 60969
BSTAR          = .47323E-4
MEAN_MOTION_DOT = .45E-6
MEAN_MOTION_DDOT = 0

CCSDS_OMM_VERS = 2.0
CREATION_DATE  = 
ORIGINATOR     = 

OBJECT_NAME    = ARIANE 40+ R/B
OBJECT_ID      = 1995-021B
CENTER_NAME    = EARTH
REF_FRAME      = TEME
TIME_SYSTEM    = UTC
MEAN_ELEMENT_THEORY = SGP/SGP4

EPOCH          = 2026-01-22T10:52:09.739200
MEAN_MOTION    = 14.39733167
ECCENTRICITY   = .0005625
INCLINATION    = 98.4589
RA_OF_ASC_NODE = 94.5401
ARG_OF_PERICENTER = 281.6336
MEAN_ANOMALY   = 88.8375

EPHEMERIS_TYPE = 0
CLASSIFICATION_TYPE = U
NORAD_CAT_ID   = 23561
ELEMENT_SET_NO = 999
REV_AT_EPOCH   = 61259
BSTAR          = .22638E-3
MEAN_MOTION_DOT = .665E-5
MEAN_MOTION_DDOT = 0

CCSDS_OMM_VERS = 2.0
CREATION_DATE  = 
ORIGINATOR     = 

OBJECT_NAME    = SL-16 R/B
OBJECT_ID      = 1995-058B
CENTER_NAME    = EARTH
REF_FRAME      = TEME
TIME_SYSTEM    = UTC
MEAN_ELEMENT_THEORY = SGP/SGP4

EPOCH          = 2026-01-22T09:59:01.749408
MEAN_MOTION    = 14.15489265
ECCENTRICITY   = .0013264
INCLINATION    = 71.0212
RA_OF_ASC_NODE = 277.4067
ARG_OF_PERICENTER = 200.5832
MEAN_ANOMALY   = 159.4759

EPHEMERIS_TYPE = 0
CLASSIFICATION_TYPE = U
NORAD_CAT_ID   = 23705
ELEMENT_SET_NO = 999
REV_AT_EPOCH   = 56130
BSTAR          = -.63931E-4
MEAN_MOTION_DOT = -.173E-5
MEAN_MOTION_DDOT = 0

CCSDS_OMM_VERS = 2.0
CREATION_DATE  = 
ORIGINATOR     = 

OBJECT_NAME    = SL-16 R/B
OBJECT_ID      = 1996-051B
CENTER_NAME    = EARTH
REF_FRAME      = TEME
TIME_SYSTEM    = UTC
MEAN_ELEMENT_THEORY = SGP/SGP4

EPOCH          = 2026-01-22T10:10:13.344384
MEAN_MOTION    = 14.12402668
ECCENTRICITY   = .00186
INCLINATION    = 70.7583
RA_OF_ASC_NODE = 273.1696
ARG_OF_PERICENTER = 210.9456
MEAN_ANOMALY   = 149.0569

EPHEMERIS_TYPE = 0
CLASSIFICATION_TYPE = U
NORAD_CAT_ID   = 24298
ELEMENT_SET_NO = 999
REV_AT_EPOCH   = 51511
BSTAR          = .81656E-4
MEAN_MOTION_DOT = .102E-5
MEAN_MOTION_DDOT = 0

CCSDS_OMM_VERS = 2.0
CREATION_DATE  = 
ORIGINATOR     = 

OBJECT_NAME    = ORBVIEW 2 (SEASTAR)
OBJECT_ID      = 1997-037A
CENTER_NAME    = EARTH
REF_FRAME      = TEME
TIME_SYSTEM    = UTC
MEAN_ELEMENT_THEORY = SGP/SGP4

EPOCH          = 2026-01-22T08:15:39.528000
MEAN_MOTION    = 14.35453434
ECCENTRICITY   = .0002191
INCLINATION    = 98.8489
RA_OF_ASC_NODE = 185.4489
ARG_OF_PERICENTER = 171.9464
MEAN_ANOMALY   = 188.1756

EPHEMERIS_TYPE = 0
CLASSIFICATION_TYPE = U
NORAD_CAT_ID   = 24883
ELEMENT_SET_NO = 999
REV_AT_EPOCH   = 50182
BSTAR          = .23385E-3
MEAN_MOTION_DOT = .625E-5
MEAN_MOTION_DDOT = 0

