SL-16 R/B               
1 22566U 93016B   26022.48626832  .00000328  00000+0  19286-3 0  9992
2 22566  71.0087 312.2244 0009137  22.2974 337.8545 14.15295702695630
COSMOS 2242             
1 22626U 93024A   26022.49793207  .00003563  00000+0  31186-3 0  9997
2 22626  82.5215 310.8874 0018089  99.1016 261.2253 14.96323183773486
SL-16 R/B               
1 22803U 93059B   26022.52840891 -.00000026  00000+0  10914-4 0  9997
2 22803  70.9908 108.4755 0019575 279.3332  80.5579 14.17223818672990
ARIANE 40 R/B           
1 22830U 93061H   26022.47039946  .00000505  00000+0  20071-3 0  9990
2 22830  98.5012  92.2477 0011647  64.5521 295.6867 14.32832363687486
COSMOS 2278             
1 23087U 94023A   26022.41484277  .00000046  00000+0  48753-4 0  9997
2 23087  71.0539 271.9133 0006390 102.0601 258.1238 14.14366773638267
SL-16 R/B               
1 23088U 94023B   26022.48230833 -.00000027  00000+0  10494-4 0  9993
2 23088  70.9999 167.9256 0003940 328.9527  31.1362 14.15007042639552
SL-16 R/B               
1 23343U 94074B   26022.31707451  .00000925  00000+0  13084-3 0  9993
2 23343  97.7166  55.0016 0007075  24.3203 346.1916 14.79345160680399
SL-16 R/B               
1 23405U 94077B   26022.48196617  .00000045  00000+0  47323-4 0  9996
2 23405  70.9831  89.7040 0004846 253.0272 107.0320 14.15558697609699
ARIANE 40+ R/B          
1 23561U 95021B   26022.45289050  .00000665  00000+0  22638-3 0  9999
2 23561  98.4589  94.5401 0005625 281.6336  88.8375 14.39733167612598
SL-16 R/B               
1 23705U 95058B   26022.41599247 -.00000173  00000+0 -63931-4 0  9995
2 23705  71.0212 277.4067 0013264 200.5832 159.4759 14.15489265561301
SL-16 R/B               
1 24298U 96051B   26022.42376556  .00000102  00000+0  81656-4 0  9998
2 24298  70.7583 273.1696 0018600 210.9456 149.0569 14.12402668515114
ORBVIEW 2 (SEASTAR)     
1 24883U 97037A   26022.34420750  .00000625  00000+0  23385-3 0  9994
2 24883  98.8489 185.4489 0002191 171.9464 188.1756 14.35453434501825
